#aV2009  5 20  0  0   .00000000      96 DD+AD WGS84 FIT  NGA
## 1532 259200.00000000   900.00000000 54971  .0000000000000
+   31     2  3  4  5  6  7  8  9 10 11 12 13 14 15 16 17 18
+         19 20 21 22 23 24 25 26 27 28 29 30 31 32  0  0  0
+          0  0  0  0  0  0  0  0  0  0  0  0  0  0  0  0  0
+          0  0  0  0  0  0  0  0  0  0  0  0  0  0  0  0  0
+          0  0  0  0  0  0  0  0  0  0  0  0  0  0  0  0  0
++         0  0  0  0  0  0  0  0  0  0  0  0  0  0  0  0  0
++         0  0  0  0  0  0  0  0  0  0  0  0  0  0  0  0  0
++         0  0  0  0  0  0  0  0  0  0  0  0  0  0  0  0  0
++         0  0  0  0  0  0  0  0  0  0  0  0  0  0  0  0  0
++         0  0  0  0  0  0  0  0  0  0  0  0  0  0  0  0  0
%c cc cc ccc ccc cccc cccc cccc cccc ccccc ccccc ccccc ccccc
%c cc cc ccc ccc cccc cccc cccc cccc ccccc ccccc ccccc ccccc
%f  0.0000000  0.000000000  0.00000000000  0.000000000000000
%f  0.0000000  0.000000000  0.00000000000  0.000000000000000
%i    0    0    0    0      0      0      0      0         0
%i    0    0    0    0      0      0      0      0         0
/*      NGA, ST. LOUIS,MO.                                  
/*   EPHEMERIS COMPUTED FROM  3 DAYS OF DATA                
/* CCCCCCCCCCCCCCCCCCCCCCCCCCCCCCCCCCCCCCCCCCCCCCCCCCCCCCCCC
/* CCCCCCCCCCCCCCCCCCCCCCCCCCCCCCCCCCCCCCCCCCCCCCCCCCCCCCCCC
*  2009  5 20  3 45   .00000000                                                 
P  2 -14650.494905  -5826.722396 -21488.206637    154.475732                    
V  2   6782.651803 -26252.193998   2093.087995       .005996                    
P  3  22734.501468   6456.172731  12154.019852    395.352056                    
V  3  10503.800566  12269.838755 -25164.017738       .050245                    
P  4  -8740.629312 -17493.676548 -17939.540401    -98.138592                    
V  4   8037.091994 -21347.965955  17390.320034      -.155337                    
P  5 -19684.179664  14933.911240  -9880.101392    -87.586432                    
V  5 -12443.090615   1487.285190  28019.965436      -.204759                    
P  6  22356.588075  11198.339517   9236.679128    129.620312                    
V  6   6289.522486  10144.592776 -28054.995476       .149710                    
P  7   6676.881855 -25637.098674    363.175794     18.566950                    
V  7   2742.787869    235.995264 -31978.571506      -.006717                    
P  8  -1488.641318 -22736.833666  13157.707186   -203.879342                    
V  8   7210.988936 -15448.346896 -26262.762705      -.017923                    
P  9 -13941.773934  16786.914808  14418.668651     56.753658                    
V  9   2494.430690 -19410.931905  24029.996787       .019475                    
P 10 -25605.937975    504.098438  -7827.553506    -16.262464                    
V 10   8805.540313  -4586.544003 -29392.686879      -.006274                    
P 11  12408.947909 -18404.444018  14131.220270     -3.209548                    
V 11   2976.234928  18837.411177  21964.082982      -.015707                    
P 12 -21739.263122  12110.446522  -9036.452856   -278.735384                    
V 12 -11861.356917    500.895298  29097.031762       .053471                    
P 13    -65.077232 -18679.528931 -19013.117074    297.511765                    
V 13  16442.871623  17210.411092 -17080.722109       .009127                    
P 14  14602.352145  21508.172428   5852.734089   -107.916031                    
V 14  -6202.219850  -4120.819762  31134.474506       .059218                    
P 15 -19107.331501   -414.551339  18490.309835   -293.317157                    
V 15 -15706.954333 -17448.643882 -16580.354446      -.036963                    
P 16  23652.499795   2723.436113 -11956.441705     49.515380                    
V 16 -14277.428461   5531.882815 -26609.379345      -.033627                    
P 17 -13843.723895 -21644.779855   7183.435130     59.890898                    
V 17   8060.190468   4712.048831  29833.129895       .020058                    
P 18  -3116.771877  16311.399861  20881.019180    -55.428768                    
V 18 -25693.295112   4984.149669  -8186.728458       .032627                    
P 19  17894.702968   -540.041913  19761.966496     25.164805                    
V 19  15399.970512  19584.686084 -13205.953427      -.011535                    
P 20  20029.441891 -13896.519970 -10621.378781     82.170409                    
V 20  13644.992879   -900.147179  27275.901928      -.010343                    
P 21  -4036.418284  25572.741393   4394.281550     13.035969                    
V 21  -5431.774189   4039.227963 -30889.141025      -.021026                    
P 22   9095.215710  13675.883994  21039.928760    199.343249                    
V 22 -25603.454671   6572.700159   6773.346307      -.008312                    
P 23  10753.121365 -10504.369939 -21945.534091    390.065503                    
V 23  19535.628014  19662.714793   -115.676813       .001067                    
P 24 -13251.034087  21574.520127  -8315.306070    190.233169                    
V 24    723.140518 -10995.609490 -28960.619964       .029780                    
P 25   8898.917776 -24078.108862  -6860.027541    421.149646                    
V 25    740.929481   9372.030502 -30219.107024       .192991                    
P 26 -11434.795006   8607.590715  21854.717252     61.448503                    
V 26 -19378.021134 -21528.206517  -1117.992734       .011748                    
P 27 -15795.645004   8939.416635  20086.929076     50.492183                    
V 27   4045.539410 -23652.484326  14173.734936       .030206                    
P 28  -6500.979693 -14089.712750  22012.434031    -24.904338                    
V 28  26143.099904  -6252.280004   3484.370516      -.002318                    
P 29  -1502.771342  18083.521625 -19301.235069     21.805142                    
V 29 -17954.762984 -17056.716490 -14462.202879       .037125                    
P 30 -11954.570643  16606.787615 -17253.813844    147.534014                    
V 30 -20849.190709   4575.608717  19344.546003       .028780                    
P 31   9260.542388  15661.021530 -19093.088020    -60.629898                    
V 31  -7659.011579  23516.537423  15546.294334      -.008683                    
P 32  25340.030631  -6634.598845  -3061.336802    259.122357                    
V 32   4844.887319   2131.995066  31679.684924      -.052691                    
EOF
